{"epoch":1784902576,"count":18312,"objects":[{"id":"26958","name":"PROBA 1","type":"PAYLOAD","l1":"1 26958U 01049B   26205.30551260  .00002172  00000-0  14237-3 0  9993","l2":"2 26958  97.9612 215.1380 0054701 358.9744   1.1362 15.07646709349210"},{"id":"27844","name":"CUTE-1","type":"PAYLOAD","l1":"1 27844U 03031E   26204.98734998  .00000257  00000-0  12998-3 0  9999","l2":"2 27844  98.6747 213.0848 0010841  80.0988 280.1415 14.24355720196911"},{"id":"27848","name":"CUBESAT XI 4","type":"PAYLOAD","l1":"1 27848U 03031J   26204.01036090  .00000205  00000-0  10894-3 0  9991","l2":"2 27848  98.6778 211.8037 0010713  99.0689 261.1702 14.23637690196478"},{"id":"35684","name":"APRIZESAT 4","type":"PAYLOAD","l1":"1 35684U 09041D   26205.20916012  .00000767  00000-0  97880-4 0  9992","l2":"2 35684  98.1396 281.2654 0042824 199.7953 160.1600 14.83924453916851"},{"id":"35686","name":"APRIZESAT 3","type":"PAYLOAD","l1":"1 35686U 09041F   26204.94579359  .00000600  00000-0  57143-4 0  9997","l2":"2 35686  98.2106 359.9426 0060627 306.4705  53.0936 14.96322017921878"},{"id":"36037","name":"PROBA 2","type":"PAYLOAD","l1":"1 36037U 09059B   26205.31035537  .00000199  00000-0  56881-4 0  9995","l2":"2 36037  98.2464  28.1513 0013661 160.8649 199.3064 14.54876779886928"},{"id":"37792","name":"APRIZESAT 5","type":"PAYLOAD","l1":"1 37792U 11044E   26205.29897683  .00000796  00000-0  10780-3 0  9996","l2":"2 37792  98.2447 139.3935 0050803 242.5820 117.0218 14.81139305804283"},{"id":"37793","name":"APRIZESAT 6","type":"PAYLOAD","l1":"1 37793U 11044F   26205.22383510  .00000749  00000-0  11283-3 0  9996","l2":"2 37793  98.2328 116.4753 0042365 329.1512 191.8436 14.76967684802610"},{"id":"39159","name":"PROBA V","type":"PAYLOAD","l1":"1 39159U 13021A   26204.38597083  .00000056  00000-0  42412-4 0  9999","l2":"2 39159  98.3612 181.2104 0004919  40.4967 319.6578 14.23604538686261"},{"id":"39416","name":"APRIZESAT 7","type":"PAYLOAD","l1":"1 39416U 13066A   26205.31832042  .00001128  00000-0  11656-3 0  9991","l2":"2 39416  97.7726 158.0099 0037389  88.2804 272.2697 14.91636859686765"},{"id":"39425","name":"APRIZESAT 8","type":"PAYLOAD","l1":"1 39425U 13066K   26205.26907861  .00000863  00000-0  99009-4 0  9991","l2":"2 39425  97.8233 152.2241 0046257 162.0728 198.2133 14.87708184685187"},{"id":"40014","name":"BUGSAT 1","type":"PAYLOAD","l1":"1 40014U 14033E   26205.26810728  .00007205  00000-0  37556-3 0  9992","l2":"2 40014  98.0427 299.9949 0028676  56.2653 304.1305 15.15957791661456"},{"id":"40016","name":"SAUDISAT 4","type":"PAYLOAD","l1":"1 40016U 14033G   26205.31448951  .00000550  00000-0  79237-4 0  9994","l2":"2 40016  97.7628 350.1758 0043633 313.8440  45.9169 14.79583419651561"},{"id":"40018","name":"APRIZESAT 9","type":"PAYLOAD","l1":"1 40018U 14033J   26205.26627257  .00000624  00000-0  98590-4 0  9993","l2":"2 40018  97.9103 337.5678 0067455  81.3752 279.5091 14.74261966649026"},{"id":"40019","name":"APRIZESAT 10","type":"PAYLOAD","l1":"1 40019U 14033K   26205.26939220  .00000688  00000-0  11510-3 0  9996","l2":"2 40019  97.9689 331.4103 0079404 154.5075 206.0082 14.70920626647709"},{"id":"40076","name":"TDS 1","type":"PAYLOAD","l1":"1 40076U 14037H   26205.24663826  .00008597  00000-0  48024-3 0  9994","l2":"2 40076  98.3838 201.1510 0007567 132.6430 227.5438 15.13782428653839"},{"id":"42829","name":"TECHNOSAT","type":"PAYLOAD","l1":"1 42829U 17042E   26205.21452919  .00002653  00000-0  18989-3 0  9991","l2":"2 42829  97.4321   1.4770 0016554 332.7880  27.2478 15.05147322492278"},{"id":"42831","name":"FLYING LAPTOP","type":"PAYLOAD","l1":"1 42831U 17042G   26205.31100464  .00002961  00000-0  23347-3 0  9996","l2":"2 42831  97.4851 359.4578 0019072   3.5658 356.5700 15.01356238492028"},{"id":"43765","name":"HAWK-A","type":"PAYLOAD","l1":"1 43765U 18099H   26205.09658700  .00008920  00000-0  35325-3 0  9992","l2":"2 43765  97.3895 256.8554 0035538 153.0196 207.2899 15.25061006418727"},{"id":"43794","name":"HAWK-B","type":"PAYLOAD","l1":"1 43794U 18099AN  26205.09688404  .00007969  00000-0  33499-3 0  9990","l2":"2 43794  97.3946 256.1932 0032264 170.7797 189.4040 15.23199719418657"},{"id":"43799","name":"HAWK-C","type":"PAYLOAD","l1":"1 43799U 18099AT  26205.11956649  .00010872  00000-0  38349-3 0  9993","l2":"2 43799  97.3872 257.9751 0041089 152.6577 207.6838 15.28609719419557"},{"id":"46495","name":"SALSAT","type":"PAYLOAD","l1":"1 46495U 20068K   26205.22681703  .00008806  00000-0  30305-3 0  9994","l2":"2 46495  97.8865 210.5620 0010183 161.9998 198.1604 15.30274447321029"},{"id":"47502","name":"HAWK-2C","type":"PAYLOAD","l1":"1 47502U 21006CT  26205.11734829  .00007670  00000-0  22740-3 0  9995","l2":"2 47502  97.2264 248.6958 0008526  75.6505 284.5685 15.35077486305160"},{"id":"47505","name":"HAWK-2A","type":"PAYLOAD","l1":"1 47505U 21006CW  26205.11943139  .00008891  00000-0  26296-3 0  9990","l2":"2 47505  97.2304 249.3978 0008087  79.4066 280.8088 15.35109500305163"},{"id":"47508","name":"HAWK-2B","type":"PAYLOAD","l1":"1 47508U 21006CZ  26205.11221206  .00008806  00000-0  25939-3 0  9996","l2":"2 47508  97.2178 247.6645 0008642  77.5197 282.7014 15.35236717305169"},{"id":"48931","name":"HAWK-3B","type":"PAYLOAD","l1":"1 48931U 21059BE  26205.07476415  .00058856  00000-0  43947-3 0  9993","l2":"2 48931  97.6635  45.3557 0005181 168.5692 191.5689 15.72542463283645"},{"id":"48948","name":"HAWK-3C","type":"PAYLOAD","l1":"1 48948U 21059BX  26205.13808687  .00058831  00000-0  43915-3 0  9996","l2":"2 48948  97.6759  51.1725 0005508 168.6473 191.4915 15.72547217283657"},{"id":"48957","name":"HAWK-3A","type":"PAYLOAD","l1":"1 48957U 21059CG  26205.13795694  .00056887  00000-0  42471-3 0  9994","l2":"2 48957  97.6698  48.3484 0005298 170.2209 189.9157 15.72552505283657"},{"id":"52754","name":"HAWK-5C","type":"PAYLOAD","l1":"1 52754U 22057Y   26205.24592429  .00022511  00000-0  36757-3 0  9993","l2":"2 52754  97.6625   7.3451 0002364 298.9480  61.1535 15.52586599232097"},{"id":"52756","name":"HAWK-5B","type":"PAYLOAD","l1":"1 52756U 22057AA  26204.98795383  .00018679  00000-0  30557-3 0  9991","l2":"2 52756  97.6636   5.4250 0003039 288.2873  71.8048 15.52571919232058"}]}